{"type":"FeatureCollection","metadatos":{"Fuente_informacion_vectorial":"INEGI. Marco Geoestadístico, diciembre de 2025","Fuente_informacion_estadistica":"INEGI. Censo de Población y Vivienda, 2020"},"totalReg":1,"features":[{"type":"Feature","properties":{"cvegeo":"19039","cve_ent":"19","cve_mun":"039","nomgeo":"Monterrey","cve_cab":"0001","pob_total":"1142994","pob_femenina":"578189","pob_masculina":"564805","total_viviendas_habitadas":"329095"},"numReg":1,"geometry":{"type":"MultiPolygon","crs":{"type":"name","properties":{"name":"EPSG:6365"}},"coordinates":[[[[-100.387004875,25.797292425],[-100.385180577,25.796771758],[-100.385096853,25.796747862],[-100.385016023,25.796724793],[-100.384794581,25.79666159],[-100.384794477,25.79666156],[-100.384214395,25.796495993],[-100.384213684,25.79649579],[-100.384212764,25.796495529],[-100.383606773,25.796322564],[-100.383185915,25.79620244],[-100.383184872,25.796202143],[-100.383181181,25.796201089],[-100.38318022,25.796200817],[-100.382575098,25.796028096],[-100.382572219,25.796027274],[-100.382097171,25.795891678],[-100.381953772,25.795851004],[-100.381949156,25.795849695],[-100.381376897,25.795687374],[-100.381327557,25.795668094],[-100.381313228,25.795662495],[-100.381294451,25.795655158],[-100.381292122,25.795654249],[-100.381291972,25.795654189],[-100.38125414,25.795639406],[-100.380841097,25.795513481],[-100.380840109,25.79551318],[-100.380636991,25.795451254],[-100.380180652,25.795312561],[-100.380178043,25.795311767],[-100.379830552,25.795206154],[-100.379830514,25.795206141],[-100.379594868,25.795134521],[-100.379592277,25.795133733],[-100.379529508,25.795114656],[-100.379163109,25.795001389],[-100.379157391,25.79499962],[-100.378997816,25.794950291],[-100.37899522,25.794949488],[-100.378801106,25.79488948],[-100.378704653,25.794859663],[-100.378704557,25.794859633],[-100.378133929,25.79468598],[-100.378132445,25.794685569],[-100.377897499,25.794620255],[-100.377897441,25.794620238],[-100.377897391,25.794620225],[-100.377293495,25.794452343],[-100.377293041,25.794452216],[-100.377236232,25.794436424],[-100.377223995,25.794481231],[-100.376880544,25.794403977],[-100.376599039,25.794340662],[-100.376570157,25.794319217],[-100.376570022,25.794319118],[-100.376569925,25.794319044],[-100.37656979,25.794318944],[-100.376557493,25.794309815],[-100.376500085,25.794267194],[-100.376389218,25.79423212],[-100.376176416,25.79417294],[-100.37585453,25.794077363],[-100.375765491,25.794050925],[-100.375454446,25.793957354],[-100.375422677,25.793946531],[-100.375170152,25.793868704],[-100.375079759,25.793840845],[-100.374776303,25.793749047],[-100.374738546,25.793737625],[-100.37458887,25.793712667],[-100.374433035,25.793693963],[-100.374433066,25.793691173],[-100.374433085,25.793689374],[-100.374433283,25.793670355],[-100.374433287,25.793669996],[-100.374433301,25.793668558],[-100.374433306,25.793668197],[-100.374433757,25.793624943],[-100.374433776,25.793623144],[-100.374433682,25.79362313],[-100.374429805,25.79362257],[-100.374429233,25.793622486],[-100.374254178,25.793597133],[-100.374114292,25.793581015],[-100.374112163,25.79358077],[-100.373558572,25.793520625],[-100.373402906,25.793406727],[-100.373233703,25.793282921],[-100.372025449,25.792943397],[-100.369929799,25.79226786],[-100.36730792,25.791422627],[-100.367130685,25.790985562],[-100.366465517,25.78975924],[-100.366150086,25.789381391],[-100.365374534,25.789381431],[-100.365373144,25.789381431],[-100.365111694,25.789381443],[-100.364439229,25.789214785],[-100.363050058,25.789359618],[-100.362483808,25.788560654],[-100.359721802,25.786655551],[-100.358815071,25.785979354],[-100.357754627,25.785863688],[-100.357324324,25.785594708],[-100.356206117,25.785222732],[-100.355933169,25.785131933],[-100.354980153,25.783987654],[-100.354696625,25.783577128],[-100.354140936,25.782772523],[-100.353484102,25.781617941],[-100.35164139,25.779329307],[-100.351431587,25.779272802],[-100.351228024,25.779199956],[-100.351032248,25.779111325],[-100.350845748,25.779007581],[-100.350669945,25.778889516],[-100.350506177,25.778758027],[-100.35035569,25.778614114],[-100.350219629,25.778458874],[-100.35009903,25.778293488],[-100.34999481,25.778119214],[-100.349907763,25.77793738],[-100.349879417,25.777866814],[-100.349645222,25.776887247],[-100.349454162,25.776697221],[-100.349282121,25.77649284],[-100.34913041,25.776275661],[-100.349000181,25.776047336],[-100.348892427,25.775809603],[-100.34881073,25.775573663],[-100.347988222,25.773688255],[-100.347648624,25.773066054],[-100.346688148,25.772158257],[-100.346445125,25.771134182],[-100.345419873,25.770613196],[-100.344322692,25.770055649],[-100.342910912,25.768018173],[-100.34172491,25.765768362],[-100.341559208,25.765454022],[-100.341591381,25.764620909],[-100.340475927,25.762208514],[-100.340475036,25.762208606],[-100.337452581,25.762521748],[-100.336779319,25.762679982],[-100.322203739,25.750180953],[-100.322121876,25.750110148],[-100.322121799,25.750110081],[-100.322121907,25.750108349],[-100.322197952,25.748815052],[-100.322206599,25.748667982],[-100.322238391,25.748083739],[-100.322238489,25.748081941],[-100.322238277,25.748081942],[-100.322207146,25.748082111],[-100.322206934,25.748082113],[-100.322195779,25.748082173],[-100.322187081,25.74808222],[-100.322187019,25.74808222],[-100.322260764,25.746535623],[-100.32226717,25.746401291],[-100.322268709,25.746369065],[-100.322272443,25.746369447],[-100.322328268,25.746375163],[-100.322328479,25.74637518],[-100.322393462,25.745024353],[-100.322393497,25.745023611],[-100.322393549,25.74502254],[-100.322393451,25.745022561],[-100.322393334,25.745022585],[-100.322380149,25.745025349],[-100.322332319,25.745035371],[-100.32217062,25.745069266],[-100.32118586,25.74527569],[-100.321046402,25.745304919],[-100.321044815,25.74530525],[-100.321044857,25.745305195],[-100.321191339,25.74511137],[-100.32124049,25.74500675],[-100.321498479,25.744457661],[-100.321741199,25.74395372],[-100.32181828,25.743790631],[-100.32186386,25.74368183],[-100.321969819,25.74340249],[-100.32214688,25.74300243],[-100.32218685,25.74291169],[-100.322207369,25.74286509],[-100.322488799,25.742254201],[-100.32252245,25.74218718],[-100.322771199,25.741691721],[-100.322971289,25.74126514],[-100.32300969,25.741193291],[-100.32328772,25.740632661],[-100.323611549,25.739989951],[-100.32362817,25.7394378],[-100.323635569,25.73919231],[-100.323790249,25.739197481],[-100.32379218,25.739169031],[-100.323792209,25.739167233],[-100.32379231,25.739160905],[-100.323799341,25.738721369],[-100.323799369,25.73871957],[-100.323815799,25.73853602],[-100.323830179,25.738254631],[-100.32387638,25.737864496],[-100.323905122,25.737692461],[-100.323905419,25.737690681],[-100.323905145,25.737690662],[-100.322961312,25.737623567],[-100.32296108,25.73762355],[-100.32241143,25.73758449],[-100.32127035,25.73751694],[-100.321151825,25.73750729],[-100.320844799,25.737483081],[-100.320844379,25.73748306],[-100.32059974,25.73747028],[-100.320047335,25.737433314],[-100.31998363,25.73742905],[-100.319352339,25.73738202],[-100.318285573,25.737330664],[-100.318285519,25.737330661],[-100.318285597,25.737328864],[-100.318312643,25.736704392],[-100.318312679,25.73670358],[-100.318325546,25.73622041],[-100.31832557,25.73621945],[-100.318336679,25.7357676],[-100.318349276,25.735540725],[-100.318349349,25.735539423],[-100.318349299,25.735538926],[-100.318326008,25.735303101],[-100.318325829,25.73530129],[-100.318277968,25.735186463],[-100.31821334,25.735107404],[-100.31807612,25.7349768],[-100.31796577,25.734892971],[-100.317964448,25.734892934],[-100.317291162,25.734873851],[-100.317197708,25.734871201],[-100.317135601,25.734869451],[-100.317109874,25.734868717],[-100.317056215,25.734867185],[-100.317055739,25.734867171],[-100.317364087,25.733765354],[-100.31776451,25.732334459],[-100.317764729,25.732333675],[-100.31776498,25.73233278],[-100.317764533,25.73233266],[-100.31764058,25.732299266],[-100.31734522,25.73221969],[-100.317283981,25.732201661],[-100.316632939,25.73200998],[-100.315985086,25.731819237],[-100.315984609,25.731819096],[-100.315984086,25.731818941],[-100.315984632,25.731817296],[-100.31604166,25.73164588],[-100.316041999,25.731644861],[-100.316049814,25.731621365],[-100.316071429,25.731556381],[-100.3161264,25.731394051],[-100.316207074,25.731163521],[-100.316245846,25.731054528],[-100.316246455,25.731052815],[-100.316285832,25.730942111],[-100.316443909,25.730481621],[-100.31650568,25.730303581],[-100.316588909,25.730047341],[-100.316726204,25.729624575],[-100.316738453,25.729586861],[-100.316825509,25.72931883],[-100.317018509,25.72897862],[-100.317147649,25.72853252],[-100.31715631,25.728468581],[-100.317205462,25.728106042],[-100.317205553,25.728105381],[-100.317205485,25.728104245],[-100.317187049,25.727788181],[-100.31716431,25.727409231],[-100.317139829,25.726803201],[-100.317124659,25.725910282],[-100.317070975,25.724285237],[-100.317065657,25.72412434],[-100.317065669,25.724122543],[-100.317067278,25.723829082],[-100.317067289,25.723827281],[-100.317067298,25.723825485],[-100.317069208,25.723485744],[-100.31706922,25.723483944],[-100.31705602,25.72266208],[-100.314088961,25.721792133],[-100.31408831,25.721791941],[-100.309564821,25.72049613],[-100.30956426,25.72049597],[-100.309564844,25.720494333],[-100.309754956,25.719961222],[-100.310092819,25.71901377],[-100.310268607,25.718520808],[-100.31026917,25.718519231],[-100.31026863,25.718519009],[-100.307931673,25.717554613],[-100.30793145,25.71755452],[-100.306958114,25.71716316],[-100.306957919,25.717163081],[-100.302100937,25.715206952],[-100.302098652,25.71520603],[-100.301240431,25.714856513],[-100.30124023,25.714856431],[-100.30105146,25.714790852],[-100.300362549,25.71451554],[-100.300286985,25.714486174],[-100.30028677,25.71448609],[-100.29941098,25.714126911],[-100.29935135,25.714101414],[-100.299351179,25.71410134],[-100.29933188,25.71409312],[-100.298805837,25.713889946],[-100.29880581,25.713889937],[-100.29845571,25.713739291],[-100.298369112,25.713702207],[-100.298368889,25.71370211],[-100.29751695,25.713357315],[-100.297438945,25.71332576],[-100.29743875,25.71332568],[-100.296552569,25.712970518],[-100.296034336,25.712762798],[-100.29603372,25.71276255],[-100.294833062,25.712250093],[-100.293718279,25.711789031],[-100.2924984,25.71127303],[-100.287747584,25.709306216],[-100.287746459,25.70930575],[-100.28383695,25.708064571],[-100.28293128,25.70805668],[-100.281785702,25.708081377],[-100.28178317,25.708081431],[-100.27728441,25.70815326],[-100.27728438,25.70815326],[-100.275421119,25.708166971],[-100.275330259,25.708169022],[-100.272894549,25.708224001],[-100.272724034,25.708225181],[-100.27145195,25.708233981],[-100.271419836,25.708234564],[-100.270461379,25.70825195],[-100.27042086,25.708251959],[-100.26895397,25.708252291],[-100.268804707,25.708247659],[-100.268623059,25.70824202],[-100.268568967,25.708220233],[-100.268443689,25.708169771],[-100.268239827,25.707996921],[-100.2681753,25.707829742],[-100.268147128,25.707756756],[-100.268141819,25.707743001],[-100.268132278,25.707662163],[-100.268132249,25.70766191],[-100.268132302,25.707660365],[-100.26813618,25.707548771],[-100.268136206,25.707546975],[-100.268136361,25.707536836],[-100.268136389,25.707535039],[-100.268136415,25.707533239],[-100.268155631,25.70626854],[-100.268155659,25.70626674],[-100.268167139,25.70598542],[-100.268178679,25.705702516],[-100.268178707,25.705700718],[-100.268216169,25.703412448],[-100.268216199,25.703410651],[-100.268223838,25.703273956],[-100.26822394,25.70327215],[-100.267925859,25.703295661],[-100.267388479,25.702831],[-100.266790395,25.702271664],[-100.26678852,25.702269911],[-100.266215579,25.70218374],[-100.2650032,25.70205452],[-100.264954489,25.70203958],[-100.264666479,25.70195126],[-100.264532844,25.701846597],[-100.26421503,25.70154886],[-100.26379951,25.701224371],[-100.263568849,25.70126889],[-100.263568556,25.701268934],[-100.26330672,25.70130815],[-100.26287529,25.701318821],[-100.261976849,25.701250091],[-100.261824522,25.701228371],[-100.261815538,25.701228378],[-100.261815899,25.700836396],[-100.2618159,25.700835676],[-100.261815975,25.700753092],[-100.261815975,25.700752373],[-100.261815978,25.70075129],[-100.261815979,25.70075057],[-100.261804904,25.70030093],[-100.261804859,25.700299121],[-100.261804875,25.700298042],[-100.261804884,25.700297322],[-100.261806223,25.70020586],[-100.261806234,25.70020514],[-100.261806249,25.700204061],[-100.26180626,25.700203341],[-100.261806276,25.700202263],[-100.261806288,25.700201544],[-100.261809578,25.69999887],[-100.261809589,25.699998151],[-100.261809608,25.699997071],[-100.261809619,25.699996351],[-100.261809636,25.699995273],[-100.261809647,25.699994554],[-100.261812019,25.699847489],[-100.261812031,25.69984677],[-100.261812049,25.699845691],[-100.261812061,25.699844971],[-100.261812077,25.699843892],[-100.261812089,25.699843173],[-100.261812737,25.699802948],[-100.261812749,25.699802228],[-100.261812767,25.699801151],[-100.261812779,25.699800431],[-100.261812801,25.699799351],[-100.261812817,25.699798631],[-100.261813694,25.699757497],[-100.261813709,25.699756778],[-100.261813732,25.699755699],[-100.261813747,25.699754979],[-100.26181377,25.699753901],[-100.261813786,25.699753182],[-100.261823257,25.699308768],[-100.261823272,25.699308048],[-100.261823295,25.699306971],[-100.26182331,25.699306251],[-100.261837344,25.699226368],[-100.261837389,25.699226115],[-100.261837419,25.699225941],[-100.261837368,25.699224571],[-100.261822696,25.69882997],[-100.261822629,25.698828171],[-100.261822651,25.698827092],[-100.261822666,25.698826372],[-100.261825635,25.698684999],[-100.26182565,25.69868428],[-100.261825673,25.698683201],[-100.261825689,25.698682481],[-100.261825711,25.698681403],[-100.261825726,25.698680683],[-100.261832965,25.698337548],[-100.261832981,25.698336828],[-100.261833003,25.698335751],[-100.261833019,25.698335031],[-100.26183861,25.69812332],[-100.261838629,25.6981226],[-100.261844944,25.697884954],[-100.261844963,25.697884234],[-100.26184569,25.697856871],[-100.261845709,25.697856151],[-100.261846549,25.697818543],[-100.261846565,25.697817824],[-100.261852614,25.697546901],[-100.26185263,25.697546181],[-100.261856804,25.697359882],[-100.261856819,25.697359162],[-100.261856832,25.697358571],[-100.261856843,25.697358083],[-100.261856849,25.697357851],[-100.261856841,25.697357364],[-100.261852629,25.696972031],[-100.261852639,25.696970953],[-100.261852646,25.696970233],[-100.261860641,25.696232121],[-100.261860649,25.696231401],[-100.261860661,25.696230323],[-100.261860668,25.696229604],[-100.261860679,25.696228524],[-100.261860687,25.696227804],[-100.26186111,25.696188798],[-100.261861118,25.696188079],[-100.26186113,25.696187],[-100.261861139,25.69618628],[-100.26186115,25.696185201],[-100.261861155,25.696184482],[-100.261861974,25.696098238],[-100.261861981,25.696097519],[-100.261861991,25.696096441],[-100.261861999,25.696095721],[-100.261862108,25.695995351],[-100.261862109,25.695994631],[-100.26186152,25.695864301],[-100.261861517,25.695863582],[-100.261861443,25.695773192],[-100.261861443,25.695772473],[-100.26186059,25.694732961],[-100.261860589,25.694732241],[-100.261859992,25.694005624],[-100.261859991,25.694004905],[-100.261859909,25.693902861],[-100.261859909,25.693902141],[-100.261860741,25.693681291],[-100.261860744,25.693680571],[-100.261860747,25.693679493],[-100.261860751,25.693678774],[-100.261861656,25.693438869],[-100.261861658,25.69343815],[-100.261861706,25.693426031],[-100.261861709,25.693425311],[-100.261861292,25.693356003],[-100.261861286,25.693355283],[-100.261858945,25.692964043],[-100.261858942,25.692963491],[-100.261858942,25.692963324],[-100.261858939,25.692962771],[-100.261858951,25.692962245],[-100.261858967,25.692961525],[-100.261864825,25.692694859],[-100.26186484,25.69269414],[-100.26186486,25.692693061],[-100.261864872,25.692692341],[-100.261882199,25.692203642],[-100.261882229,25.692202821],[-100.261882225,25.692202563],[-100.261882221,25.692201843],[-100.261881181,25.692000941],[-100.261881179,25.69200022],[-100.261881185,25.691999142],[-100.261881189,25.691998423],[-100.261883892,25.691575779],[-100.261883894,25.691575484],[-100.261883897,25.691575059],[-100.261883899,25.691574764],[-100.261883905,25.69157398],[-100.261883907,25.691573685],[-100.26188391,25.69157326],[-100.261883924,25.691572966],[-100.261888259,25.691484431],[-100.26190258,25.69122135],[-100.261910494,25.691127766],[-100.261910592,25.691126631],[-100.261929054,25.69090835],[-100.261930302,25.690893606],[-100.261953483,25.690619553],[-100.261992618,25.690156881],[-100.262002966,25.689708664],[-100.262002983,25.689707945],[-100.262003002,25.689707141],[-100.262003008,25.689706865],[-100.262003019,25.689706421],[-100.262003007,25.689706145],[-100.261992689,25.68944935],[-100.26197451,25.689270781],[-100.261962864,25.689124094],[-100.26196272,25.689122281],[-100.261904051,25.688315582],[-100.261903419,25.688306882],[-100.261868659,25.68766262],[-100.261864443,25.687590765],[-100.261864339,25.687589001],[-100.261853049,25.685997734],[-100.261853037,25.685995936],[-100.261851457,25.685773112],[-100.261850488,25.68563588],[-100.26184936,25.685478714],[-100.261849348,25.685476916],[-100.26184756,25.685440776],[-100.261847249,25.685434481],[-100.261840781,25.685010253],[-100.261839946,25.684955478],[-100.261839919,25.68495368],[-100.26183923,25.684888721],[-100.261838587,25.684838913],[-100.261836858,25.684704741],[-100.261830029,25.684173451],[-100.261816593,25.683804297],[-100.261812799,25.68370003],[-100.261752853,25.683464218],[-100.261743129,25.683425965],[-100.261736,25.683397921],[-100.261519731,25.683060468],[-100.261518889,25.683059151],[-100.261273758,25.682656132],[-100.261273631,25.682655923],[-100.261273375,25.682655501],[-100.261273119,25.68265508],[-100.261334568,25.68258611],[-100.26144283,25.682554691],[-100.261579117,25.682519571],[-100.261737349,25.682481582],[-100.261889347,25.682427306],[-100.262035117,25.682402982],[-100.262159138,25.68236529],[-100.262283027,25.682316351],[-100.26241305,25.682256092],[-100.26256452,25.682167491],[-100.262711798,25.682055321],[-100.262835707,25.68199362],[-100.262951797,25.681960141],[-100.263125904,25.68192538],[-100.26327902,25.681899031],[-100.263568917,25.681833062],[-100.26386142,25.68177726],[-100.263998634,25.681759426],[-100.264009369,25.68175803],[-100.264156878,25.681736261],[-100.264452967,25.68169923],[-100.264750829,25.681676507],[-100.264899018,25.681658952],[-100.265193778,25.681651251],[-100.26540214,25.68167048],[-100.265648978,25.681668338],[-100.265934748,25.681676941],[-100.266056138,25.68169052],[-100.26618549,25.681694261],[-100.266355219,25.681692802],[-100.266554538,25.68168863],[-100.266752549,25.681652081],[-100.266966571,25.681620093],[-100.26712038,25.681577682],[-100.26728349,25.681539913],[-100.26739866,25.681491682],[-100.267557487,25.681428741],[-100.26774377,25.681383801],[-100.26793238,25.681414292],[-100.268034648,25.68145254],[-100.2681724,25.681491851],[-100.268326998,25.681512981],[-100.26842642,25.681535948],[-100.268564449,25.6815858],[-100.26875082,25.681630982],[-100.268889366,25.681659642],[-100.268910538,25.681664022],[-100.26902208,25.681690396],[-100.269118917,25.681705001],[-100.269238447,25.681712542],[-100.269359778,25.681713201],[-100.269496378,25.681699291],[-100.269624048,25.681703691],[-100.269840249,25.68169191],[-100.270047257,25.681673621],[-100.270169937,25.681655201],[-100.270302029,25.681622281],[-100.2704484,25.681581996],[-100.270618539,25.681525622],[-100.270754568,25.681484698],[-100.270908349,25.681435829],[-100.271043857,25.681375311],[-100.271142659,25.681306279],[-100.271143317,25.68130582],[-100.271253561,25.681207475],[-100.271256018,25.681205282],[-100.271406941,25.68113531],[-100.271444951,25.681115261],[-100.271569079,25.68104978],[-100.271743249,25.681000232],[-100.271914947,25.680921948],[-100.272087447,25.680847549],[-100.272278939,25.680727881],[-100.272279001,25.680727834],[-100.272359949,25.68066642],[-100.27237651,25.680653861],[-100.272377842,25.680653034],[-100.27259343,25.680519281],[-100.27286952,25.680415511],[-100.273002779,25.680354181],[-100.273139617,25.680299721],[-100.27340191,25.680169851],[-100.273512858,25.680079119],[-100.273632087,25.679997461],[-100.273740689,25.67990442],[-100.273820938,25.679790166],[-100.273995219,25.679570121],[-100.274088597,25.679464382],[-100.27417792,25.679355821],[-100.27434205,25.67912945],[-100.274427229,25.67901817],[-100.27456291,25.678776831],[-100.274635369,25.67865838],[-100.274781348,25.678422038],[-100.274853749,25.678303571],[-100.274996118,25.678065401],[-100.275125337,25.677821173],[-100.275181864,25.677695802],[-100.275291569,25.67744385],[-100.275343969,25.677317031],[-100.275391628,25.677188661],[-100.275442738,25.677061422],[-100.27550257,25.676937311],[-100.275573508,25.676818111],[-100.275641427,25.67669748],[-100.275719945,25.676582252],[-100.275819919,25.676481581],[-100.275907107,25.6763716],[-100.275935534,25.676334304],[-100.275936378,25.676333197],[-100.275936706,25.676332767],[-100.27593694,25.67633246],[-100.274388819,25.67638254],[-100.274303227,25.676389077],[-100.27430188,25.67638918],[-100.274226077,25.676395151],[-100.274158429,25.676400462],[-100.273896769,25.676403451],[-100.273895608,25.676403468],[-100.273267716,25.676411749],[-100.273267626,25.67641175],[-100.27277095,25.676422261],[-100.27172592,25.676437168],[-100.271724068,25.676437195],[-100.271722785,25.676437214],[-100.27172195,25.676437226],[-100.271721962,25.676437197],[-100.271724092,25.676435398],[-100.27190949,25.676278832],[-100.272736579,25.67559951],[-100.273054479,25.675348851],[-100.273099748,25.67531555],[-100.273169579,25.67526422],[-100.27369295,25.674844221],[-100.273880373,25.674665626],[-100.273880812,25.674665208],[-100.273881106,25.674664928],[-100.273880397,25.674663828],[-100.273667871,25.674333728],[-100.273667348,25.674332914],[-100.273666999,25.67433237],[-100.273667897,25.674331928],[-100.273970549,25.674182861],[-100.274154419,25.673961861],[-100.274236556,25.673773036],[-100.274236617,25.673772895],[-100.274236657,25.673772801],[-100.27423658,25.673771237],[-100.274224598,25.673530561],[-100.274224509,25.67352877],[-100.274201918,25.67347863],[-100.274137119,25.67323823],[-100.274085258,25.6731232],[-100.274016979,25.673004112],[-100.273760627,25.67278805],[-100.27348494,25.67267528],[-100.272827999,25.672675221],[-100.272826426,25.672115378],[-100.272826424,25.672114659],[-100.272826421,25.672113581],[-100.27282642,25.672112861],[-100.272811537,25.671528738],[-100.27281149,25.671526941],[-100.272789095,25.670925547],[-100.272789029,25.670923747],[-100.271636599,25.670932891],[-100.271584188,25.67081018],[-100.27158354,25.670808661],[-100.271415818,25.670454171],[-100.27138197,25.670280454],[-100.271381119,25.670242242],[-100.271381096,25.670241522],[-100.271379139,25.67015134],[-100.271379476,25.669864298],[-100.271379477,25.669863578],[-100.271379479,25.6698625],[-100.27137948,25.66986178],[-100.271379493,25.669860702],[-100.271379502,25.669859982],[-100.271386624,25.66930087],[-100.271386624,25.669300844],[-100.271386634,25.66930014],[-100.271386647,25.669299061],[-100.271386655,25.669298345],[-100.271383182,25.668717269],[-100.271383178,25.66871655],[-100.271383173,25.668715471],[-100.271383169,25.668714751],[-100.271372783,25.668154849],[-100.271372749,25.668153051],[-100.271372399,25.668120341],[-100.271365501,25.667556688],[-100.271365479,25.66755489],[-100.27136355,25.667196077],[-100.271363547,25.667195357],[-100.271363542,25.667194271],[-100.271363539,25.66719355],[-100.271351974,25.666949332],[-100.271351889,25.66694754],[-100.271353281,25.666261892],[-100.271353283,25.666261173],[-100.271353286,25.666260095],[-100.271353289,25.666259374],[-100.27135308,25.666259382],[-100.271019508,25.666270311],[-100.27022809,25.66629035],[-100.270186982,25.665778016],[-100.270186849,25.665776351],[-100.270114922,25.664913443],[-100.270114779,25.664911711],[-100.27005269,25.66404348],[-100.270001605,25.663421015],[-100.270001459,25.663419221],[-100.269893781,25.662061665],[-100.26989363,25.66205975],[-100.269862367,25.661563003],[-100.269862249,25.661561111],[-100.2697975,25.661014817],[-100.269797267,25.661012848],[-100.26951554,25.660810947],[-100.269514765,25.660810392],[-100.269514249,25.660810021],[-100.269515566,25.660809148],[-100.269695854,25.660689513],[-100.269696661,25.660688978],[-100.269697199,25.660688621],[-100.269695878,25.660687716],[-100.26964945,25.660655851],[-100.268981599,25.660320821],[-100.268985414,25.660040568],[-100.268985423,25.660039849],[-100.268985439,25.66003877],[-100.268985449,25.66003805],[-100.26901218,25.659819891],[-100.269161578,25.65981786],[-100.26931089,25.659812201],[-100.269589049,25.65976958],[-100.269752049,25.65974495],[-100.269869703,25.659661463],[-100.270006229,25.659598351],[-100.270136548,25.659532107],[-100.27025335,25.659439461],[-100.270359379,25.659352381],[-100.270481517,25.65927423],[-100.270584229,25.659175861],[-100.270676971,25.65906966],[-100.270771395,25.658964711],[-100.27087878,25.658870541],[-100.27098792,25.658778051],[-100.271097507,25.65868598],[-100.271212117,25.65859909],[-100.271317658,25.65850322],[-100.27141883,25.65840357],[-100.271519138,25.658303182],[-100.271625318,25.65820789],[-100.27173502,25.65811594],[-100.271850148,25.658029625],[-100.271951317,25.657929951],[-100.272058879,25.657826251],[-100.272154258,25.657737621],[-100.27221886,25.65761549],[-100.27223886,25.657481291],[-100.272366149,25.65741034],[-100.272479948,25.65732258],[-100.272585908,25.657227091],[-100.272691017,25.657130832],[-100.272801849,25.657040001],[-100.272915598,25.656952201],[-100.273034079,25.656869662],[-100.273154999,25.65679011],[-100.273266058,25.65669952],[-100.273346549,25.65658542],[-100.273416688,25.656465831],[-100.273493749,25.65634982],[-100.273561829,25.65608608],[-100.273566738,25.655950722],[-100.273570041,25.655683849],[-100.273570049,25.65568313],[-100.273570058,25.655682409],[-100.273570063,25.655682051],[-100.273570067,25.65568169],[-100.273570071,25.655681331],[-100.27357008,25.655680611],[-100.273570088,25.655679891],[-100.273570001,25.655679546],[-100.27353668,25.655547891],[-100.2735366,25.65554742],[-100.273491169,25.655280201],[-100.27347729,25.65514535],[-100.273477218,25.655144879],[-100.273436289,25.654877061],[-100.273436267,25.654877011],[-100.273381659,25.654751],[-100.273314629,25.65462997],[-100.273226799,25.654520421],[-100.273103139,25.654407971],[-100.272999769,25.654310182],[-100.272899629,25.65420966],[-100.272780289,25.654102111],[-100.272687769,25.65399578],[-100.272583749,25.65389857],[-100.27247472,25.653805951],[-100.272364459,25.653714552],[-100.272249369,25.6536282],[-100.27212588,25.653551941],[-100.27200002,25.65347895],[-100.27175218,25.653327751],[-100.2716472,25.653259182],[-100.271504058,25.653189173],[-100.2713676,25.653135201],[-100.271104879,25.653006141],[-100.270981308,25.65293002],[-100.270862859,25.652847432],[-100.270837108,25.65283754],[-100.27072531,25.652794573],[-100.27060611,25.65271292],[-100.270484649,25.652634051],[-100.270229227,25.65249345],[-100.269953378,25.65238928],[-100.269878058,25.6523538],[-100.269782178,25.65230865],[-100.269732519,25.652285261],[-100.269688199,25.65226438],[-100.269561019,25.652193312],[-100.269328418,25.652023282],[-100.269070028,25.651887202],[-100.268956978,25.65179866],[-100.268876949,25.651713311],[-100.268744939,25.65160929],[-100.268661,25.651527082],[-100.268525519,25.651427021],[-100.268411057,25.65133998],[-100.26829963,25.65124975],[-100.268198628,25.65114995],[-100.26813177,25.651028832],[-100.268131673,25.651028364],[-100.26810845,25.650916222],[-100.268108442,25.650916129],[-100.26809732,25.65078117],[-100.268094143,25.650646768],[-100.268094138,25.650646566],[-100.268094129,25.650646168],[-100.26809412,25.65064577],[-100.268111108,25.650359311],[-100.268111137,25.65035882],[-100.268110606,25.650225668],[-100.268110604,25.650224949],[-100.268110603,25.650224637],[-100.268110602,25.650224101],[-100.268110601,25.650224008],[-100.2681106,25.650223382],[-100.268125979,25.650105802],[-100.268170579,25.64997655],[-100.268220939,25.649911571],[-100.26825645,25.649865721],[-100.268361018,25.649768984],[-100.268473399,25.649679741],[-100.268554049,25.649565721],[-100.268668549,25.64947874],[-100.268769519,25.649378921],[-100.268875879,25.649283801],[-100.269004419,25.64921475],[-100.269133739,25.649146921],[-100.269227969,25.64909777],[-100.269393449,25.64901297],[-100.269526419,25.648951202],[-100.269805279,25.648853911],[-100.269944619,25.64880406],[-100.270078649,25.648747981],[-100.27021422,25.648691061],[-100.270415538,25.648608912],[-100.27048834,25.64859371],[-100.270787029,25.648585582],[-100.270934968,25.648604551],[-100.271083658,25.648617821],[-100.271233029,25.648620921],[-100.271382449,25.64862178],[-100.27168126,25.648620831],[-100.271830679,25.648619691],[-100.271978179,25.648598182],[-100.272104058,25.648525223],[-100.27223792,25.64845897],[-100.27236152,25.64836655],[-100.272470079,25.64829012],[-100.272728718,25.648154461],[-100.272855708,25.648083091],[-100.272975228,25.648001831],[-100.27308614,25.647911081],[-100.273203719,25.64782754],[-100.273319168,25.647741571],[-100.273432938,25.647653773],[-100.273561829,25.647585292],[-100.273652889,25.647546091],[-100.273786149,25.647445801],[-100.273891309,25.647368311],[-100.274020419,25.64730017],[-100.27412963,25.647207741],[-100.274166982,25.647163503],[-100.274177826,25.647150659],[-100.274220419,25.647100201],[-100.274249345,25.647053018],[-100.27425642,25.647041474],[-100.274292965,25.646981846],[-100.274292979,25.646981823],[-100.274295011,25.646967976],[-100.274295499,25.646964647],[-100.274297099,25.646953754],[-100.274301984,25.64692046],[-100.274312679,25.64684757],[-100.274323178,25.64671248],[-100.274329689,25.646577606],[-100.274329707,25.646577171],[-100.274329996,25.646442471],[-100.274329997,25.646441751],[-100.27432878,25.646306341],[-100.27432737,25.646170911],[-100.274318539,25.646035721],[-100.274308979,25.64590057],[-100.274302599,25.64581445],[-100.274298978,25.64576545],[-100.274282059,25.645630891],[-100.27426514,25.64549634],[-100.274252289,25.6453614],[-100.274252222,25.645361131],[-100.274219508,25.645229281],[-100.27418597,25.64509731],[-100.27412168,25.644975061],[-100.273976619,25.644738921],[-100.27387112,25.6446426],[-100.27375152,25.644529261],[-100.273655858,25.64442523],[-100.27359775,25.644300481],[-100.273597658,25.644300012],[-100.273571539,25.644167151],[-100.273528349,25.644060941],[-100.273498379,25.643928261],[-100.273498351,25.643928046],[-100.273480678,25.643793781],[-100.273481232,25.643645294],[-100.273481235,25.643644574],[-100.273481236,25.643643854],[-100.273481238,25.643643592],[-100.273481238,25.643643552],[-100.27348124,25.643643134],[-100.273481241,25.643642872],[-100.273481242,25.643642791],[-100.273481244,25.643642151],[-100.273481245,25.643642111],[-100.273481248,25.643641432],[-100.27350571,25.643507831],[-100.273523405,25.643374376],[-100.273523432,25.643374174],[-100.273523485,25.643373773],[-100.273523539,25.643373371],[-100.273505048,25.64323898],[-100.273504966,25.64323851],[-100.273481779,25.643105202],[-100.273382119,25.643004311],[-100.273258326,25.64294658],[-100.273253829,25.642944481],[-100.273193348,25.642917742],[-100.273109319,25.64289546],[-100.272985992,25.642871881],[-100.272820319,25.642840221],[-100.272674049,25.64281262],[-100.272526599,25.642790781],[-100.27238135,25.642759062],[-100.272235799,25.642728522],[-100.272090119,25.642698431],[-100.27194445,25.642668352],[-100.271796829,25.642647521],[-100.271649198,25.642626691],[-100.27150771,25.6425832],[-100.271366219,25.64253971],[-100.271226889,25.6424908],[-100.270965858,25.64241069],[-100.27080032,25.642380651],[-100.270660419,25.642333121],[-100.270530749,25.64226585],[-100.27040675,25.64219029],[-100.270281798,25.642116061],[-100.270123629,25.642009551],[-100.270041937,25.641954541],[-100.269954579,25.64184466],[-100.269887517,25.6417504],[-100.269828769,25.641625881],[-100.269734889,25.64149206],[-100.26966138,25.641398481],[-100.269569739,25.64129942],[-100.269534749,25.64116774],[-100.269476378,25.641043081],[-100.269429858,25.640914381],[-100.26942978,25.64091391],[-100.26940738,25.640780512],[-100.269407362,25.640780447],[-100.26937134,25.640649081],[-100.26932285,25.640520971],[-100.269283709,25.640390281],[-100.269283689,25.640390032],[-100.26927294,25.6402552],[-100.269254059,25.64012086],[-100.269234478,25.639986604],[-100.26922628,25.63985138],[-100.269221538,25.63971602],[-100.269223181,25.63958456],[-100.269223189,25.63958384],[-100.269223198,25.639583119],[-100.269223202,25.639582761],[-100.269223206,25.6395824],[-100.26922321,25.639582041],[-100.269223219,25.639581321],[-100.269223229,25.639580601],[-100.26922221,25.63945328],[-100.269222208,25.63945297],[-100.269222203,25.639452343],[-100.269222199,25.639451719],[-100.269229411,25.639404531],[-100.269243799,25.639310401],[-100.269297799,25.639184121],[-100.269344629,25.639055522],[-100.269377319,25.638923372],[-100.269389258,25.638788381],[-100.269410448,25.63865432],[-100.26944814,25.638523281],[-100.26951063,25.638258621],[-100.269517658,25.63812332],[-100.26952635,25.637988121],[-100.26953348,25.63785285],[-100.269575449,25.637722881],[-100.269590427,25.63758814],[-100.269613028,25.63745426],[-100.269635629,25.637320401],[-100.269681649,25.63705278],[-100.269706419,25.636919233],[-100.269749249,25.636789491],[-100.269779478,25.63665686],[-100.26983918,25.63639148],[-100.26989526,25.63625538],[-100.269949579,25.636157601],[-100.269962458,25.636134432],[-100.270024243,25.636011121],[-100.270106687,25.635898181],[-100.270168279,25.635774802],[-100.270300887,25.635532081],[-100.27039406,25.635433571],[-100.27048115,25.635323541],[-100.270668198,25.63511232],[-100.270707999,25.635070381],[-100.27076566,25.635009681],[-100.270845379,25.634915721],[-100.270928478,25.63480317],[-100.271006817,25.63468786],[-100.271086089,25.634573081],[-100.271154748,25.634452798],[-100.271286457,25.63420975],[-100.27134143,25.634083821],[-100.271384139,25.633954047],[-100.27145031,25.633832632],[-100.27150691,25.63370729],[-100.271529579,25.633573431],[-100.271554221,25.633486882],[-100.271554691,25.633467541],[-100.271554709,25.633466821],[-100.271560339,25.633331481],[-100.271575432,25.633196741],[-100.27159212,25.633062398],[-100.271592147,25.63306217],[-100.271591781,25.632927461],[-100.27159178,25.632926742],[-100.271557214,25.632638521],[-100.27154925,25.632503291],[-100.271549178,25.63250305],[-100.271510089,25.632372601],[-100.271475968,25.63224074],[-100.271414459,25.63197569],[-100.27136792,25.631847002],[-100.271330257,25.631765018],[-100.271310509,25.631721981],[-100.27125132,25.631597636],[-100.271218247,25.631540797],[-100.271217347,25.631539251],[-100.271098739,25.631368485],[-100.27102234,25.631252111],[-100.270966878,25.631126351],[-100.27090354,25.631003711],[-100.270852457,25.630924721],[-100.270827998,25.630886861],[-100.270827906,25.630886392],[-100.270801917,25.63075351],[-100.270801842,25.63075304],[-100.270780519,25.630619491],[-100.270767447,25.63048457],[-100.270767365,25.630484099],[-100.27074423,25.630350801],[-100.270744153,25.63035033],[-100.270738709,25.630316956],[-100.270739087,25.63023862],[-100.27073909,25.6302379],[-100.270739094,25.630237179],[-100.270739096,25.630236821],[-100.270739097,25.63023646],[-100.270739099,25.630236101],[-100.270739104,25.630235381],[-100.270739107,25.63023466],[-100.270740612,25.630103212],[-100.27074062,25.630102491],[-100.270740629,25.630101771],[-100.270740634,25.630101413],[-100.270740637,25.630101051],[-100.270740642,25.630100694],[-100.27074065,25.630099973],[-100.270740658,25.630099254],[-100.270741008,25.629967623],[-100.27074101,25.629966903],[-100.27074101,25.629966183],[-100.270741012,25.629965984],[-100.270741012,25.629965922],[-100.270741013,25.629965463],[-100.270741014,25.629965265],[-100.270741014,25.62996514],[-100.270741017,25.629964544],[-100.270741017,25.629964481],[-100.27074102,25.629963825],[-100.270757569,25.62982923],[-100.27077591,25.629694832],[-100.270787734,25.629559822],[-100.270799499,25.62942557],[-100.270799512,25.629425418],[-100.270799539,25.629425119],[-100.270799565,25.629424821],[-100.270788152,25.629136703],[-100.270788135,25.629136251],[-100.270789668,25.629086817],[-100.270789691,25.629086098],[-100.270791699,25.629021402],[-100.270791722,25.629020683],[-100.270791731,25.629020381],[-100.270791746,25.629019901],[-100.27079175,25.629019781],[-100.270791769,25.629019181],[-100.270781458,25.628884091],[-100.270778538,25.628748691],[-100.270778455,25.628748336],[-100.270747477,25.628616221],[-100.270747474,25.628616103],[-100.270743795,25.628481428],[-100.270743786,25.628481071],[-100.270743779,25.628480831],[-100.270748311,25.62834546],[-100.270764858,25.628211773],[-100.27076488,25.628211594],[-100.270764925,25.628211237],[-100.27076497,25.62821088],[-100.27075216,25.628077121],[-100.270752137,25.628076886],[-100.270752093,25.628076419],[-100.270752048,25.628075952],[-100.270780777,25.62794306],[-100.270825307,25.627813782],[-100.270881049,25.62768815],[-100.27089015,25.627666781],[-100.270934879,25.627561821],[-100.270942679,25.627546221],[-100.270996647,25.627438511],[-100.27107048,25.62732078],[-100.271164219,25.62721532],[-100.271258889,25.62711055],[-100.271359348,25.62701035],[-100.271461689,25.626911691],[-100.271574428,25.626822835],[-100.271693447,25.626740981],[-100.271818749,25.626667262],[-100.271934447,25.62658158],[-100.27204285,25.6264884],[-100.27214966,25.626393722],[-100.272257219,25.62629974],[-100.272344918,25.626225181],[-100.272485149,25.626125181],[-100.272587797,25.6260268],[-100.272690819,25.625928721],[-100.272778938,25.625819372],[-100.272813409,25.6256649],[-100.272813442,25.625664753],[-100.27281351,25.625664445],[-100.272813577,25.62566414],[-100.272794718,25.625529782],[-100.272794685,25.625529682],[-100.272698687,25.625248095],[-100.27254694,25.625016971],[-100.272444058,25.62489414],[-100.272240828,25.62470937],[-100.27216651,25.62461985],[-100.272063719,25.62452158],[-100.271956182,25.624427582],[-100.27184866,25.624333571],[-100.27162112,25.624185421],[-100.27117615,25.623992222],[-100.270907769,25.623873229],[-100.270778971,25.623804622],[-100.27065425,25.623730091],[-100.270526777,25.62365948],[-100.270401229,25.623586081],[-100.27027732,25.62351045],[-100.27004091,25.62334483],[-100.26995189,25.62323608],[-100.269869687,25.623123022],[-100.269781134,25.623013939],[-100.269757549,25.622979985],[-100.269701522,25.62289934],[-100.269645827,25.622773685],[-100.269539689,25.622520491],[-100.269483747,25.622394921],[-100.26943251,25.622267711],[-100.269403679,25.62213483],[-100.269403604,25.622134359],[-100.26938214,25.622000821],[-100.269372686,25.621866054],[-100.26937268,25.621865968],[-100.26937267,25.621865818],[-100.269372659,25.621865661],[-100.26937271,25.621864257],[-100.269377628,25.621730312],[-100.269405489,25.621591266],[-100.26945011,25.621477294],[-100.269450265,25.6214769],[-100.269450576,25.621476105],[-100.269450887,25.621475311],[-100.269450134,25.621475497],[-100.26877388,25.621641311],[-100.268325279,25.621753201],[-100.268323861,25.621753472],[-100.268030677,25.62180957],[-100.267040909,25.622017111],[-100.26695348,25.622037682],[-100.266953013,25.622037797],[-100.266930106,25.622043406],[-100.266929829,25.622043473],[-100.266844007,25.622064494],[-100.26683157,25.62206754],[-100.266771594,25.622080721],[-100.266356883,25.622171863],[-100.26635649,25.62217195],[-100.266343429,25.62217482],[-100.266342048,25.622175273],[-100.266310648,25.622185551],[-100.265915268,25.622273348],[-100.26583811,25.622290481],[-100.265795519,25.622275831],[-100.265795218,25.622275882],[-100.264908965,25.622426319],[-100.26487702,25.622431741],[-100.2647154,25.622465261],[-100.264715091,25.622465329],[-100.264118719,25.622594631],[-100.263631169,25.622708831],[-100.263630761,25.622708922],[-100.26304445,25.62283877],[-100.263031094,25.622842157],[-100.263030735,25.622842248],[-100.26274972,25.622913492],[-100.262728879,25.622918771],[-100.262666208,25.622934659],[-100.262665842,25.622934753],[-100.261634731,25.623200176],[-100.26163343,25.62320051],[-100.243269939,25.62611017],[-100.242075232,25.624772725],[-100.243231119,25.616974521],[-100.242714599,25.616056321],[-100.241154658,25.614211232],[-100.240430969,25.612925711],[-100.239695059,25.611335721],[-100.239206629,25.611021581],[-100.237806978,25.610587772],[-100.236705568,25.609618851],[-100.236147859,25.607730541],[-100.236277089,25.606596971],[-100.236097999,25.605438452],[-100.235118148,25.604456881],[-100.234684148,25.604130911],[-100.234512628,25.604018032],[-100.234459909,25.603971481],[-100.234426169,25.603912911],[-100.234420799,25.603795382],[-100.234694748,25.603349202],[-100.234631829,25.603094601],[-100.233670419,25.602245921],[-100.233175819,25.601754032],[-100.232272519,25.601346541],[-100.231873679,25.60118569],[-100.231197738,25.600216152],[-100.230297519,25.599205621],[-100.229906719,25.598725521],[-100.229796799,25.597892282],[-100.229778428,25.597731952],[-100.229427779,25.597375511],[-100.229238218,25.597223031],[-100.228945678,25.597144551],[-100.228963249,25.596924051],[-100.228875169,25.596698861],[-100.228684399,25.596366311],[-100.228432258,25.596196512],[-100.228002418,25.596049371],[-100.227638818,25.595979201],[-100.226971848,25.595232552],[-100.226330508,25.592971232],[-100.226011429,25.592294491],[-100.225301288,25.591745892],[-100.225018599,25.591470741],[-100.224931918,25.591188852],[-100.225033149,25.589833451],[-100.224870508,25.589627122],[-100.224393889,25.589327291],[-100.223017879,25.589075541],[-100.222657289,25.588764652],[-100.222419998,25.588079851],[-100.222123999,25.587500821],[-100.221810648,25.58700908],[-100.221323799,25.586463552],[-100.220878119,25.586134511],[-100.220699199,25.585824312],[-100.220486908,25.585467582],[-100.220211489,25.585188891],[-100.219979349,25.584921942],[-100.219899688,25.584724892],[-100.219895149,25.584248521],[-100.219653978,25.584098021],[-100.219306948,25.584118311],[-100.219110479,25.584229381],[-100.218978449,25.58421154],[-100.219072049,25.583606231],[-100.218984948,25.583525291],[-100.218768228,25.583417661],[-100.218332659,25.583256122],[-100.217823889,25.583003052],[-100.217194459,25.582184181],[-100.216826749,25.581717141],[-100.216413249,25.581178752],[-100.216250909,25.580048582],[-100.215450628,25.578380711],[-100.214667089,25.576681631],[-100.214281168,25.576299382],[-100.213691708,25.575793681],[-100.213493538,25.575525281],[-100.213253599,25.574366711],[-100.213105319,25.573873052],[-100.213261228,25.573076282],[-100.212824308,25.57281863],[-100.209770278,25.568396752],[-100.208745139,25.567706371],[-100.207438969,25.565171631],[-100.206761648,25.563941051],[-100.206075228,25.563446951],[-100.205618948,25.562644182],[-100.205509859,25.562375951],[-100.205469539,25.561665401],[-100.205657748,25.561103092],[-100.205686708,25.560912311],[-100.205683028,25.560724801],[-100.205500679,25.560355632],[-100.205341168,25.559896512],[-100.204705739,25.559600261],[-100.204249778,25.559335651],[-100.203918979,25.559078552],[-100.202593628,25.556971032],[-100.202136348,25.556375262],[-100.201432309,25.555610491],[-100.200813879,25.554200351],[-100.200686378,25.553289742],[-100.200380858,25.553006582],[-100.200178198,25.552491551],[-100.200025168,25.551724421],[-100.198964859,25.55133252],[-100.198314478,25.551085721],[-100.198039889,25.550940092],[-100.197796908,25.550678741],[-100.197618679,25.550386221],[-100.197692769,25.549961372],[-100.195306569,25.546232112],[-100.193617399,25.544307822],[-100.192889739,25.543967621],[-100.191328049,25.54312268],[-100.188600089,25.54009331],[-100.188419229,25.53969566],[-100.18809409,25.53959774],[-100.18723446,25.53916174],[-100.185736679,25.538700721],[-100.184999979,25.53766208],[-100.18447714,25.53722278],[-100.184186779,25.537106861],[-100.183763059,25.53671009],[-100.183489619,25.53619168],[-100.182825779,25.53543317],[-100.182465779,25.53515403],[-100.18139311,25.533636891],[-100.18032894,25.531820431],[-100.179891949,25.53122815],[-100.17926263,25.53028705],[-100.17880469,25.53030422],[-100.17833909,25.52937423],[-100.17710902,25.52707838],[-100.17588328,25.52570889],[-100.17568525,25.52525506],[-100.17289072,25.52107455],[-100.17237368,25.52064863],[-100.17181425,25.52006437],[-100.17110418,25.51984243],[-100.16945649,25.51907448],[-100.1686922,25.51819072],[-100.16793609,25.5174674],[-100.16744698,25.51694292],[-100.1682688,25.51652938],[-100.16866962,25.51596725],[-100.1690782,25.51562248],[-100.16932457,25.51550328],[-100.16958206,25.51546188],[-100.17088914,25.51423302],[-100.17179171,25.51376305],[-100.17290988,25.51373118],[-100.17396158,25.51312071],[-100.17448812,25.51295537],[-100.17478645,25.51285823],[-100.17543805,25.512902141],[-100.176156378,25.513139579],[-100.176168029,25.51314343],[-100.176485649,25.513982111],[-100.17664962,25.51492717],[-100.17696349,25.51538032],[-100.17699932,25.5158682],[-100.177246992,25.516868296],[-100.177247379,25.51686986],[-100.178281449,25.517661541],[-100.1788862,25.51816898],[-100.18063165,25.51864565],[-100.18167432,25.518461981],[-100.18257215,25.51808678],[-100.182673569,25.518125001],[-100.18298368,25.51824186],[-100.183168517,25.518386159],[-100.183183569,25.51839791],[-100.183183534,25.518399706],[-100.183158349,25.519711744],[-100.183158339,25.519712261],[-100.1833058,25.519832421],[-100.183537089,25.519836311],[-100.18368443,25.519771021],[-100.18375722,25.519640631],[-100.18377058,25.51957946],[-100.183792128,25.519584186],[-100.18379908,25.519585711],[-100.183894859,25.51971906],[-100.184025309,25.51997637],[-100.184135556,25.520090798],[-100.184146209,25.520101856],[-100.184357619,25.52018475],[-100.18463929,25.520368651],[-100.184745629,25.520422421],[-100.18484375,25.52046048],[-100.184927939,25.520471861],[-100.185093379,25.52046082],[-100.185152429,25.520446061],[-100.18523831,25.520458091],[-100.185376689,25.520507081],[-100.185665449,25.52053551],[-100.186582169,25.520524],[-100.186677368,25.520570311],[-100.18669046,25.52057668],[-100.18675688,25.52079594],[-100.186756628,25.520796988],[-100.186721859,25.520941111],[-100.186642599,25.52106003],[-100.186618608,25.521149096],[-100.186613279,25.52116888],[-100.186613785,25.521168706],[-100.18683845,25.52109135],[-100.18695546,25.520990002],[-100.187041579,25.52091541],[-100.187258479,25.52072754],[-100.187403767,25.520417119],[-100.1874038,25.52041705],[-100.187403797,25.520416446],[-100.187403792,25.520415321],[-100.187402497,25.520102483],[-100.18740249,25.520100801],[-100.187402522,25.520100686],[-100.18745725,25.51990163],[-100.187544199,25.519430083],[-100.18794285,25.51950885],[-100.188195688,25.519474001],[-100.18844638,25.519370381],[-100.18862351,25.519230572],[-100.188860517,25.519098351],[-100.18914129,25.519022329],[-100.189141318,25.519022322],[-100.189419689,25.51902217],[-100.18954372,25.519022005],[-100.18973602,25.51904912],[-100.190134212,25.519015138],[-100.19014718,25.519014031],[-100.190164692,25.519131712],[-100.190192585,25.519210332],[-100.190193055,25.519211658],[-100.190220477,25.519288951],[-100.190315778,25.519434107],[-100.190316799,25.519435663],[-100.19046621,25.519555287],[-100.190474747,25.519562121],[-100.19064572,25.519718431],[-100.19078566,25.519932371],[-100.1909432,25.520211461],[-100.191042909,25.520367708],[-100.19109687,25.520435637],[-100.191105919,25.520447031],[-100.191342419,25.52050158],[-100.19147734,25.52050031],[-100.191624739,25.520496381],[-100.19178834,25.520414001],[-100.192285577,25.519891653],[-100.192459094,25.519735429],[-100.192486281,25.519711601],[-100.19312794,25.519127554],[-100.193446607,25.518698829],[-100.193446859,25.518698491],[-100.193446632,25.51869703],[-100.193270143,25.517559565],[-100.19327002,25.51755877],[-100.193329509,25.517155352],[-100.193392857,25.516881861],[-100.193819279,25.51693152],[-100.19399845,25.516945771],[-100.19453178,25.516988171],[-100.195016369,25.516984221],[-100.19544212,25.516889951],[-100.195831281,25.516728111],[-100.196074749,25.51657802],[-100.196375569,25.516207417],[-100.196629019,25.51545089],[-100.196774449,25.515078111],[-100.196958479,25.514840141],[-100.197143849,25.514737282],[-100.19738003,25.514746604],[-100.19812734,25.51492066],[-100.19853892,25.51507495],[-100.19920103,25.51542988],[-100.199307629,25.515442511],[-100.19934371,25.515447202],[-100.199427949,25.51545822],[-100.199640459,25.515505631],[-100.19987798,25.515588581],[-100.200401249,25.515909154],[-100.201554649,25.516568021],[-100.20181168,25.516654109],[-100.202009379,25.516701633],[-100.20296594,25.516693781],[-100.20396711,25.51670791],[-100.204257689,25.516674231],[-100.20455785,25.516609221],[-100.204897169,25.516517061],[-100.205231509,25.51642046],[-100.206128058,25.51610882],[-100.20616517,25.516019383],[-100.20626172,25.515795351],[-100.20639298,25.515370261],[-100.206445354,25.514817999],[-100.206452029,25.51474762],[-100.2065814,25.514230801],[-100.20666382,25.51403331],[-100.206670807,25.51400566],[-100.206709812,25.513851311],[-100.206728829,25.51377606],[-100.206734603,25.513732413],[-100.20677331,25.513439801],[-100.206839739,25.51318277],[-100.20731791,25.51252626],[-100.207600419,25.512236821],[-100.20809851,25.51204843],[-100.208321239,25.511979456],[-100.208448061,25.511940182],[-100.208589016,25.511765232],[-100.20863122,25.511712851],[-100.208785619,25.51129529],[-100.209292973,25.510805628],[-100.209507767,25.510598326],[-100.209880062,25.510330128],[-100.21085917,25.509624782],[-100.211117878,25.509131889],[-100.2111416,25.509086695],[-100.21134746,25.508694491],[-100.211742149,25.508130682],[-100.211948302,25.507919713],[-100.212339498,25.507519379],[-100.212899119,25.507055202],[-100.213389549,25.506737912],[-100.213590999,25.506635063],[-100.214094274,25.506530033],[-100.215052769,25.506409823],[-100.21530832,25.506388032],[-100.215472491,25.506204664],[-100.215605538,25.506010953],[-100.215726503,25.505903021],[-100.215857979,25.505785712],[-100.216081779,25.505632822],[-100.216426654,25.50549783],[-100.216700849,25.505278109],[-100.21723565,25.504849551],[-100.218032218,25.504211223],[-100.218356574,25.503853493],[-100.218357502,25.503852632],[-100.218510666,25.503710429],[-100.219145369,25.502753316],[-100.219430175,25.502909489],[-100.219471598,25.502932204],[-100.219548739,25.502942003],[-100.219579795,25.502911175],[-100.21987725,25.502615912],[-100.220241289,25.502176374],[-100.22031977,25.502038293],[-100.220429198,25.501891422],[-100.220638049,25.501787484],[-100.220683639,25.501767894],[-100.220833338,25.501703576],[-100.221047828,25.501580711],[-100.221059862,25.501566911],[-100.221376028,25.501204322],[-100.22185248,25.500976805],[-100.221983336,25.500835416],[-100.222142939,25.50066297],[-100.222373918,25.500694544],[-100.222534793,25.500624777],[-100.222535079,25.500624653],[-100.222534818,25.500622978],[-100.222527441,25.50057552],[-100.222527198,25.500573953],[-100.222527465,25.500573722],[-100.222662299,25.500457707],[-100.222702805,25.50043951],[-100.222816169,25.500388591],[-100.223086428,25.500363034],[-100.223560298,25.500318208],[-100.224921539,25.500189435],[-100.229629047,25.506956283],[-100.230016968,25.507572912],[-100.23318569,25.50542052],[-100.22942126,25.5002414],[-100.22938792,25.49864429],[-100.23081274,25.49785511],[-100.23096545,25.49759268],[-100.23110326,25.49738163],[-100.23129325,25.4972768],[-100.23268648,25.49630435],[-100.23307211,25.49605803],[-100.23379286,25.49603094],[-100.235233,25.4964142],[-100.23565471,25.49635792],[-100.23600097,25.49626849],[-100.23789058,25.49539475],[-100.23823825,25.49501182],[-100.23875614,25.49508482],[-100.24190402,25.49284888],[-100.24214902,25.49203926],[-100.24288952,25.49160385],[-100.24472574,25.48968472],[-100.24960791,25.48781732],[-100.25020135,25.48724962],[-100.25138809,25.48561482],[-100.25220902,25.48457728],[-100.25376872,25.48397049],[-100.25530114,25.48361877],[-100.25658835,25.48283091],[-100.25762198,25.48213445],[-100.25795902,25.48284603],[-100.25841057,25.48399795],[-100.2601756,25.48557908],[-100.2609854,25.48780862],[-100.26066295,25.48828602],[-100.26135498,25.48962886],[-100.26218955,25.49086403],[-100.26585892,25.49753683],[-100.26608831,25.49793314],[-100.26697974,25.49844797],[-100.27043708,25.49938338],[-100.27249434,25.5005654],[-100.27335385,25.50187189],[-100.27337602,25.50314877],[-100.27292168,25.50500565],[-100.27223726,25.50542042],[-100.27105548,25.50604088],[-100.27097214,25.50765271],[-100.27218238,25.50974911],[-100.27456151,25.51237169],[-100.27563118,25.51362346],[-100.27621463,25.51520208],[-100.27811611,25.51945602],[-100.28540383,25.52288969],[-100.2865838,25.52364158],[-100.28776948,25.5251718],[-100.2878792,25.52664498],[-100.2880054,25.52826889],[-100.2885928,25.52918132],[-100.28986297,25.52981695],[-100.29249165,25.52984389],[-100.29442009,25.52889106],[-100.29635505,25.53022208],[-100.29964425,25.53275726],[-100.30018891,25.53335018],[-100.30016898,25.53429898],[-100.29951815,25.53569829],[-100.29960966,25.53624935],[-100.3032052,25.53931822],[-100.30882282,25.54190028],[-100.31278292,25.54367528],[-100.31424508,25.54579374],[-100.31635558,25.54694802],[-100.31756851,25.54690955],[-100.31834663,25.54719523],[-100.31825018,25.54751831],[-100.31492526,25.55755323],[-100.31475838,25.55832772],[-100.31466662,25.55891792],[-100.31821746,25.56051689],[-100.3188478,25.56083525],[-100.31887574,25.56128383],[-100.31834771,25.56275826],[-100.31827897,25.56360826],[-100.31840051,25.56403695],[-100.31919662,25.56558271],[-100.31925868,25.56679888],[-100.31835565,25.56796534],[-100.31777848,25.56868903],[-100.31649314,25.56974106],[-100.31702108,25.57184118],[-100.31792718,25.57235129],[-100.31875837,25.57305037],[-100.32033478,25.57416483],[-100.32145806,25.57480948],[-100.32316562,25.57493151],[-100.32610457,25.57576877],[-100.3293374,25.57680923],[-100.33040123,25.57862366],[-100.33558543,25.58132818],[-100.33651025,25.58210717],[-100.33691409,25.58301097],[-100.33862882,25.58490206],[-100.34004231,25.58537558],[-100.34194603,25.58616203],[-100.34210725,25.58638325],[-100.34199498,25.58673268],[-100.34188369,25.58700738],[-100.34229163,25.58733928],[-100.34269315,25.58767685],[-100.34441842,25.58887975],[-100.3444228,25.58925152],[-100.34412238,25.58979251],[-100.33421754,25.60689277],[-100.33359458,25.60786434],[-100.332528861,25.614352051],[-100.332527765,25.614353111],[-100.32660011,25.62009362],[-100.326599734,25.620094964],[-100.326580479,25.62016388],[-100.32238494,25.62815025],[-100.322384296,25.628151475],[-100.32236931,25.62817998],[-100.31924515,25.635275],[-100.31914232,25.635445201],[-100.318997399,25.635562691],[-100.318916219,25.63562852],[-100.318832368,25.635655261],[-100.318832401,25.635657042],[-100.318832999,25.635689321],[-100.318840319,25.63608163],[-100.31884245,25.636195291],[-100.318842397,25.636195534],[-100.318795461,25.636412531],[-100.31879575,25.636412877],[-100.31885611,25.636484851],[-100.318887464,25.63657419],[-100.31888785,25.63657529],[-100.318887441,25.636575989],[-100.31867868,25.63693245],[-100.318677879,25.636933769],[-100.318414979,25.637366311],[-100.318414229,25.637367458],[-100.31824032,25.63763351],[-100.318239315,25.637635047],[-100.318047346,25.63792873],[-100.318046698,25.637930262],[-100.318018309,25.63799743],[-100.317977126,25.63809488],[-100.317976509,25.638096341],[-100.317977103,25.638096679],[-100.318183152,25.638213861],[-100.318184105,25.638214403],[-100.318183128,25.638215661],[-100.317729479,25.638799021],[-100.31772853,25.638800267],[-100.31676131,25.640070061],[-100.316446199,25.64048372],[-100.316350369,25.64059652],[-100.316349379,25.640597685],[-100.316334167,25.640615595],[-100.316318008,25.640634621],[-100.316313744,25.64063964],[-100.316246212,25.640719152],[-100.316245885,25.640719537],[-100.316242737,25.640723242],[-100.316223885,25.640745437],[-100.316209954,25.640762518],[-100.31620705,25.640766081],[-100.316206094,25.64076725],[-100.316202056,25.640772199],[-100.316117992,25.640875204],[-100.316100824,25.640896242],[-100.31610009,25.640897141],[-100.315797223,25.640695479],[-100.31579583,25.64069455],[-100.315777463,25.640717517],[-100.315756489,25.640743741],[-100.315755535,25.640744931],[-100.31541649,25.64116842],[-100.315415609,25.641169675],[-100.315165029,25.641527261],[-100.315164585,25.641529193],[-100.315123428,25.641708433],[-100.315106169,25.6417836],[-100.314958481,25.642000988],[-100.314950842,25.642012234],[-100.314950278,25.642013061],[-100.31485917,25.64196335],[-100.314857539,25.64196246],[-100.314856625,25.641964087],[-100.314838668,25.641996023],[-100.314611758,25.642399583],[-100.314610949,25.64240102],[-100.314611735,25.64240138],[-100.315919898,25.643001312],[-100.31592077,25.643001711],[-100.315919875,25.64300311],[-100.315740032,25.64328464],[-100.315739579,25.64328535],[-100.315326069,25.643103427],[-100.314638957,25.642815781],[-100.31463743,25.64281514],[-100.31460149,25.64285274],[-100.314600236,25.642854053],[-100.31439015,25.643073851],[-100.31419683,25.643349061],[-100.314195884,25.64335046],[-100.31403951,25.643582061],[-100.31396765,25.64363408],[-100.313966888,25.643635539],[-100.31390663,25.643751171],[-100.313701739,25.64414434],[-100.313701028,25.64414579],[-100.313603289,25.644344711],[-100.313546663,25.64445456],[-100.313546199,25.64445546],[-100.31354664,25.644456357],[-100.313565558,25.644494852],[-100.31356597,25.644495691],[-100.313565535,25.644496651],[-100.31356524,25.644497299],[-100.313470139,25.644707181],[-100.313469057,25.644708815],[-100.31345009,25.64473745],[-100.31329343,25.64495114],[-100.31319308,25.64502029],[-100.313162945,25.64502925],[-100.31316237,25.64502942],[-100.312623556,25.646165561],[-100.31256806,25.646282581],[-100.312568471,25.646283463],[-100.31289503,25.64698388],[-100.31290194,25.64699974],[-100.313002379,25.647015831],[-100.313747419,25.647302021],[-100.31448154,25.647706311],[-100.315500679,25.64826754],[-100.31598185,25.648642921],[-100.31630537,25.648896181],[-100.31646798,25.649010781],[-100.317869769,25.649909081],[-100.317902179,25.64993243],[-100.318771829,25.650283031],[-100.318946289,25.650456601],[-100.32008123,25.651746421],[-100.32112805,25.652548881],[-100.32141695,25.652664621],[-100.321581019,25.652760571],[-100.32164843,25.652790321],[-100.32366203,25.65334503],[-100.323906139,25.65342232],[-100.32419786,25.653531061],[-100.324520179,25.653599121],[-100.324868939,25.653631001],[-100.3251246,25.65372105],[-100.32520462,25.653743821],[-100.325206556,25.653743791],[-100.325301109,25.65374237],[-100.325301813,25.653742413],[-100.32533337,25.653744371],[-100.325405449,25.653747721],[-100.32545518,25.653758341],[-100.32566643,25.653851341],[-100.32566805,25.653851144],[-100.32578117,25.653837401],[-100.325782664,25.653837499],[-100.32611928,25.6538596],[-100.326119486,25.653859497],[-100.32626986,25.653783821],[-100.3263058,25.653750651],[-100.32634154,25.653699751],[-100.326753519,25.652990261],[-100.326755426,25.65299065],[-100.326938629,25.653028],[-100.327009689,25.65304985],[-100.327081861,25.653074349],[-100.327096401,25.653079285],[-100.32711645,25.653086091],[-100.327154902,25.65309971],[-100.327313238,25.653155791],[-100.32731383,25.653156001],[-100.327313215,25.653157589],[-100.327209569,25.653425912],[-100.327209551,25.653425966],[-100.32720952,25.653426059],[-100.327137565,25.653642213],[-100.32713695,25.65364406],[-100.327137541,25.653644012],[-100.327137636,25.653644004],[-100.327139136,25.65364388],[-100.32724729,25.653634981],[-100.327633939,25.65363325],[-100.327634099,25.653633282],[-100.32780825,25.65366775],[-100.32799362,25.65370651],[-100.32801951,25.65371552],[-100.328117379,25.65374966],[-100.328235179,25.653809741],[-100.32852805,25.653977],[-100.32872934,25.654073421],[-100.329174219,25.654189171],[-100.32928329,25.65420643],[-100.329452977,25.654252508],[-100.329535739,25.654274981],[-100.3299202,25.654365351],[-100.33028785,25.65451154],[-100.330516859,25.65460586],[-100.33082138,25.65471852],[-100.331080319,25.65486206],[-100.331454279,25.65512063],[-100.33149271,25.65519446],[-100.33150768,25.65527103],[-100.3315352,25.65546002],[-100.331543429,25.65569263],[-100.33163934,25.65584951],[-100.331865619,25.65606137],[-100.331957079,25.656155571],[-100.33213175,25.65637989],[-100.332266319,25.65651902],[-100.33238528,25.656671689],[-100.332716089,25.656799401],[-100.332819859,25.65682214],[-100.332821093,25.656821968],[-100.33325431,25.656761541],[-100.333427089,25.656752221],[-100.333427584,25.656752329],[-100.3335854,25.656787371],[-100.333786549,25.656895151],[-100.333797819,25.656903751],[-100.33386757,25.65695706],[-100.33403874,25.65709243],[-100.334162233,25.657174832],[-100.334345459,25.65728508],[-100.335172169,25.65768426],[-100.336023435,25.658142696],[-100.33613538,25.65820078],[-100.33651218,25.6583652],[-100.336579985,25.658392803],[-100.33671398,25.658447351],[-100.33776095,25.65898171],[-100.33887602,25.659608861],[-100.339705709,25.66008965],[-100.34081298,25.660618861],[-100.34115742,25.66082218],[-100.34149131,25.661030881],[-100.342152668,25.661527483],[-100.34244697,25.66164018],[-100.343207889,25.661872571],[-100.343917072,25.66210525],[-100.344352149,25.662305651],[-100.344693249,25.662344208],[-100.34509302,25.662406031],[-100.34554842,25.662543941],[-100.346476369,25.662814941],[-100.346477657,25.662814722],[-100.346542149,25.662803711],[-100.346576,25.662796261],[-100.346655259,25.66273922],[-100.346690879,25.66261082],[-100.346692174,25.662613811],[-100.346762628,25.662776439],[-100.346782016,25.662787918],[-100.346866909,25.66283818],[-100.346883649,25.662857971],[-100.346885455,25.662857625],[-100.346912421,25.662852461],[-100.346912695,25.662852837],[-100.34694758,25.662900851],[-100.347252509,25.662973801],[-100.347272522,25.662982228],[-100.34757194,25.66310829],[-100.347571332,25.663109842],[-100.347571216,25.663110133],[-100.347534134,25.663204674],[-100.347475659,25.663353751],[-100.347472964,25.663359451],[-100.34744258,25.663423751],[-100.34744323,25.663424124],[-100.348498479,25.664027261],[-100.348522219,25.664144972],[-100.348888952,25.664186872],[-100.349044579,25.66420465],[-100.349044945,25.664204472],[-100.349216419,25.664121111],[-100.34931843,25.664051541],[-100.349320057,25.664051899],[-100.349375389,25.664064059],[-100.349394229,25.6640682],[-100.349393912,25.664069934],[-100.349385939,25.664113867],[-100.349366838,25.664219123],[-100.3493642,25.664233661],[-100.349364493,25.66423371],[-100.35005426,25.664346651],[-100.350178659,25.66436928],[-100.350557539,25.66482146],[-100.350558895,25.664820573],[-100.350915489,25.664587121],[-100.35145615,25.6641758],[-100.351565366,25.664151956],[-100.351566219,25.664152255],[-100.351813978,25.66423905],[-100.354032738,25.665493851],[-100.354418139,25.66568358],[-100.355024229,25.66573771],[-100.355350169,25.665831691],[-100.355589598,25.665975075],[-100.355627029,25.66599749],[-100.355827249,25.66621589],[-100.355994576,25.666345121],[-100.356175949,25.6664852],[-100.35675588,25.66680126],[-100.357666599,25.66730114],[-100.35781449,25.667333293],[-100.35807351,25.667478721],[-100.35823868,25.667547401],[-100.359532709,25.668085401],[-100.36011189,25.66851822],[-100.363359219,25.6709588],[-100.363486859,25.671055081],[-100.363487618,25.671054078],[-100.363881119,25.670534507],[-100.364270829,25.670061081],[-100.36460343,25.66963674],[-100.365094969,25.66918263],[-100.365245749,25.669039833],[-100.365333758,25.668956484],[-100.365534577,25.668766297],[-100.365724502,25.668586426],[-100.365926738,25.668394894],[-100.36614521,25.668291093],[-100.36643063,25.66815548],[-100.366769927,25.668072027],[-100.36677971,25.668069621],[-100.367121429,25.66801805],[-100.367147124,25.668017655],[-100.367325017,25.668014913],[-100.367816813,25.668007333],[-100.367892932,25.668006159],[-100.367915152,25.668005817],[-100.368041979,25.668003861],[-100.368510303,25.668004554],[-100.36861632,25.668004711],[-100.368617607,25.668004731],[-100.368618437,25.668004745],[-100.369215064,25.668014291],[-100.369217182,25.668014324],[-100.370282979,25.668031371],[-100.370283326,25.668031368],[-100.371413289,25.668010147],[-100.37213868,25.667974541],[-100.372925169,25.66788865],[-100.373634749,25.667827431],[-100.374040806,25.667800031],[-100.374577109,25.667771381],[-100.375001449,25.667771427],[-100.376341509,25.66777146],[-100.377212089,25.66777149],[-100.37883391,25.66775042],[-100.378953689,25.667748028],[-100.37998245,25.667735747],[-100.379983152,25.667735787],[-100.380035193,25.667738658],[-100.380049746,25.66773946],[-100.380095109,25.667741963],[-100.380160053,25.667745547],[-100.38016883,25.667746028],[-100.380420349,25.66775991],[-100.380905849,25.66784492],[-100.381477519,25.66801942],[-100.381945029,25.668187181],[-100.382137108,25.668274617],[-100.382721249,25.668540521],[-100.383137829,25.668828651],[-100.383500663,25.669094213],[-100.383501316,25.669094691],[-100.383500641,25.669096012],[-100.383357998,25.66937558],[-100.383251171,25.66952046],[-100.383047999,25.66980462],[-100.383049144,25.669804786],[-100.38315888,25.669820623],[-100.383315346,25.669843251],[-100.384523629,25.670051111],[-100.385074779,25.670199861],[-100.385858399,25.670408741],[-100.386533309,25.67065783],[-100.387455782,25.671066221],[-100.388698369,25.671637461],[-100.39108692,25.672202981],[-100.39218826,25.672463521],[-100.39271182,25.67257915],[-100.395408979,25.673184981],[-100.395442679,25.673192051],[-100.39604452,25.67357408],[-100.39624703,25.673684721],[-100.396264925,25.67369537],[-100.396420429,25.673787895],[-100.396530445,25.67385542],[-100.396613059,25.673909821],[-100.396693939,25.673968112],[-100.396818119,25.67404466],[-100.396916169,25.674111291],[-100.397049549,25.674207081],[-100.397155169,25.674281181],[-100.39727497,25.6743828],[-100.397387689,25.674469051],[-100.397503618,25.67455555],[-100.39762412,25.67463251],[-100.397628309,25.674862631],[-100.397657114,25.67583252],[-100.397659949,25.67593386],[-100.39768165,25.67602068],[-100.397892428,25.67609266],[-100.39793435,25.676123831],[-100.397949629,25.676195861],[-100.397949531,25.676197306],[-100.397943549,25.676286201],[-100.397865221,25.676751921],[-100.39786488,25.676753951],[-100.397865154,25.676753988],[-100.39816209,25.67679385],[-100.398161766,25.676795608],[-100.398072088,25.677282621],[-100.39805602,25.677416911],[-100.397998781,25.6776216],[-100.397966261,25.677886491],[-100.397955258,25.677967971],[-100.39793034,25.678152459],[-100.397872139,25.678152568],[-100.397870219,25.678152572],[-100.397614678,25.67812041],[-100.397612617,25.678120152],[-100.397612372,25.678121182],[-100.397587279,25.678226491],[-100.397587671,25.678226553],[-100.397635449,25.67823414],[-100.397635173,25.678235899],[-100.397628875,25.678276024],[-100.397614419,25.67836812],[-100.397614626,25.678368142],[-100.397614674,25.678368148],[-100.397674829,25.67837458],[-100.39767266,25.679029291],[-100.397672646,25.679031089],[-100.39766918,25.679475381],[-100.39767157,25.6795652],[-100.39766578,25.69446689],[-100.40157868,25.69893646],[-100.40237338,25.70081368],[-100.40368495,25.70249095],[-100.40439792,25.70293185],[-100.40578088,25.70387686],[-100.40690097,25.70462258],[-100.40960002,25.70456008],[-100.41016965,25.70508012],[-100.41029022,25.70609169],[-100.41102145,25.70676871],[-100.41138074,25.70762906],[-100.41346532,25.70790423],[-100.41495386,25.70875998],[-100.41487794,25.70921778],[-100.41561292,25.70946588],[-100.41603243,25.70936986],[-100.41635888,25.70933102],[-100.41726194,25.70974057],[-100.41760478,25.70978243],[-100.41827531,25.70997043],[-100.41885923,25.71021231],[-100.41894026,25.71075108],[-100.41944338,25.71102949],[-100.4203404,25.71095028],[-100.42072851,25.7110776],[-100.42129963,25.71136551],[-100.42147117,25.71168466],[-100.4216628,25.71194238],[-100.42177434,25.71216982],[-100.42258163,25.71212254],[-100.42315298,25.71238274],[-100.42328295,25.71291646],[-100.42334188,25.71329902],[-100.42301754,25.71358637],[-100.42350422,25.71392445],[-100.4249844,25.71483649],[-100.42745194,25.71567894],[-100.42875875,25.7158196],[-100.43074298,25.71612778],[-100.43160422,25.71635071],[-100.43191949,25.71629597],[-100.43230312,25.71668698],[-100.43274191,25.71698954],[-100.43306989,25.71710406],[-100.43364242,25.71732337],[-100.434368,25.71748632],[-100.43654362,25.71860914],[-100.43673782,25.71862589],[-100.43946769,25.71996911],[-100.44031069,25.72015472],[-100.44132552,25.72054512],[-100.44164657,25.72051569],[-100.434636648,25.73904943],[-100.433829033,25.741184331],[-100.433030339,25.743295568],[-100.432184097,25.745532416],[-100.432183464,25.745534086],[-100.4316729,25.746883608],[-100.43044313,25.750133989],[-100.430415882,25.750206004],[-100.430392458,25.750267918],[-100.430375419,25.75031295],[-100.430355108,25.750365143],[-100.430330905,25.750427338],[-100.43026143,25.75060587],[-100.428941762,25.753996948],[-100.428873944,25.754171212],[-100.42729522,25.758227705],[-100.42728163,25.758262621],[-100.427007719,25.7589664],[-100.427007096,25.758967998],[-100.425751187,25.762194787],[-100.425739108,25.76222582],[-100.425738483,25.762227426],[-100.425594407,25.762597562],[-100.425580738,25.762632681],[-100.425443151,25.762986187],[-100.425429399,25.763021522],[-100.425273402,25.763422292],[-100.425122077,25.763811081],[-100.424971801,25.764197142],[-100.424823062,25.764579262],[-100.424665782,25.764983322],[-100.424514709,25.765371452],[-100.42335136,25.768360093],[-100.423351341,25.768360142],[-100.42324723,25.768627594],[-100.423231811,25.768667208],[-100.42321898,25.76870017],[-100.42315469,25.768851444],[-100.423152548,25.768856485],[-100.422193358,25.771113437],[-100.422115904,25.771295681],[-100.422100349,25.77133228],[-100.422099765,25.771333798],[-100.420936119,25.774363916],[-100.42092328,25.774397351],[-100.420039291,25.776699118],[-100.420026939,25.776731281],[-100.420026281,25.776732992],[-100.418731392,25.780104513],[-100.41871966,25.78013506],[-100.418661014,25.780287757],[-100.418536614,25.780611653],[-100.418530655,25.78062717],[-100.418423796,25.780905395],[-100.418423151,25.780907074],[-100.418423128,25.780907135],[-100.418422514,25.780908731],[-100.418410108,25.780941031],[-100.418276962,25.78128769],[-100.418153419,25.781609344],[-100.418050717,25.781876738],[-100.41804485,25.781892012],[-100.418016955,25.781964638],[-100.418009159,25.781984933],[-100.417900958,25.782266641],[-100.417893493,25.782286074],[-100.417891824,25.78229042],[-100.417891166,25.782292133],[-100.417888648,25.782298689],[-100.417884386,25.782309785],[-100.41788373,25.782311493],[-100.417881219,25.78231803],[-100.417874319,25.782335995],[-100.417726642,25.78272048],[-100.417570948,25.783125834],[-100.417404234,25.783559878],[-100.4169046,25.784860665],[-100.416892141,25.784893102],[-100.4168914,25.784895031],[-100.416269394,25.786537158],[-100.416268614,25.786539216],[-100.41625897,25.786564677],[-100.41625689,25.78657017],[-100.416256272,25.786571838],[-100.416179727,25.786779015],[-100.416179646,25.786779233],[-100.41616795,25.786810892],[-100.41604226,25.787151151],[-100.416041686,25.787152701],[-100.41592308,25.78747377],[-100.415922949,25.787474124],[-100.41580391,25.78779635],[-100.415803317,25.787797955],[-100.415607617,25.788327671],[-100.415607003,25.788329332],[-100.41560683,25.788329801],[-100.415606217,25.788331458],[-100.415559077,25.788459066],[-100.415558429,25.788460821],[-100.415467817,25.788706042],[-100.415467429,25.78870709],[-100.415467174,25.788707783],[-100.415466787,25.788708828],[-100.415449274,25.788756268],[-100.41544894,25.788757172],[-100.41533254,25.789072224],[-100.415332379,25.78907266],[-100.415332516,25.789074021],[-100.415354223,25.789286503],[-100.415367794,25.789419371],[-100.415367588,25.78941936],[-100.41519578,25.789409851],[-100.415091883,25.789508613],[-100.413889635,25.789469395],[-100.412763042,25.789549744],[-100.411064605,25.79033336],[-100.410178484,25.791030885],[-100.409563579,25.791507478],[-100.409562751,25.791508119],[-100.408865194,25.792048764],[-100.406270045,25.794230935],[-100.404859887,25.795754765],[-100.40424689,25.796141966],[-100.40405481,25.796263293],[-100.403975188,25.796327507],[-100.403889685,25.796385193],[-100.403798954,25.796435913],[-100.403703685,25.796479283],[-100.403604602,25.796514969],[-100.403502462,25.796542705],[-100.403398039,25.796562273],[-100.40329213,25.796573529],[-100.403185538,25.796576388],[-100.403079079,25.796570823],[-100.402973561,25.796556883],[-100.402869785,25.796534668],[-100.402851338,25.796529799],[-100.402820077,25.796518994],[-100.401434826,25.796040149],[-100.401412006,25.796032262],[-100.401410757,25.796031829],[-100.400944786,25.795870753],[-100.400818979,25.795827263],[-100.400747648,25.795793156],[-100.399239562,25.795072027],[-100.398056504,25.794218103],[-100.397845614,25.794006319],[-100.39761514,25.793811978],[-100.397366832,25.793636561],[-100.39710258,25.793481403],[-100.396960668,25.793413188],[-100.396824399,25.793347686],[-100.396692719,25.793297165],[-100.396534401,25.793236424],[-100.396234798,25.793148468],[-100.395927867,25.793084485],[-100.395723585,25.793055767],[-100.394832084,25.792908995],[-100.394634489,25.792876463],[-100.394028404,25.792776676],[-100.394027048,25.792776603],[-100.393729177,25.792760332],[-100.393429515,25.792767658],[-100.393131699,25.792798598],[-100.392937774,25.792834463],[-100.392837994,25.792852918],[-100.392550635,25.792930206],[-100.392271812,25.79302987],[-100.392183591,25.793069771],[-100.392003644,25.793151156],[-100.391967047,25.793169822],[-100.391360077,25.793467426],[-100.390784066,25.793811784],[-100.390243396,25.794200279],[-100.389875747,25.794507969],[-100.389786712,25.794587516],[-100.389786418,25.79458778],[-100.388286359,25.79592797],[-100.387740886,25.796625282],[-100.387472283,25.79696865],[-100.387193636,25.797346297],[-100.387004875,25.797292425]]]]}}]}